start=new Date('2022-10-31T00:00:00.000Z').valueOf();
sats=[{"TLE_LINE1":"1 47599U 21009BD  22303.80253787  .00001030  00000-0  88053-4 0  9998","FILE":"3637924","GP_ID":"216527489","COUNTRY_CODE":"US","TLE_LINE2":"2 47599  53.0537 104.8452 0001313 114.3707 245.7419 15.06403571 96306","RA_OF_ASC_NODE":"104.8452","ECCENTRICITY":"0.00013130","MEAN_MOTION_DOT":"0.00001030","MEAN_MOTION_DDOT":"0.0000000000000","RCS_SIZE":"LARGE","PERIAPSIS":"546.293","REF_FRAME":"TEME","PERIOD":"95.592","MEAN_ANOMALY":"245.7419","INCLINATION":"53.0537","CENTER_NAME":"EARTH","ARG_OF_PERICENTER":"114.3707","EPHEMERIS_TYPE":"0","MEAN_ELEMENT_THEORY":"SGP4","CLASSIFICATION_TYPE":"U","OBJECT_TYPE":"PAYLOAD","SEMIMAJOR_AXIS":"6925.338","EPOCH":"2022-10-30T19:15:39.271968","BSTAR":"0.00008805300000","OBJECT_ID":"2021-009BD","DECAY_DATE":null,"REV_AT_EPOCH":"9630","OBJECT_NAME":"STARLINK-2004","SITE":"AFETR","MEAN_MOTION":"15.06403571","ELEMENT_SET_NO":"999","LAUNCH_DATE":"2021-02-04","TIME_SYSTEM":"UTC","APOAPSIS":"548.112","NORAD_CAT_ID":"47599"},{"RA_OF_ASC_NODE":"104.6895","TLE_LINE1":"1 47600U 21009BE  22303.82834716 -.00001139  00000-0 -57578-4 0  9990","FILE":"3637924","COUNTRY_CODE":"US","TLE_LINE2":"2 47600  53.0544 104.6895 0001312 114.1803 245.9323 15.06388836 96313","GP_ID":"216528235","INCLINATION":"53.0544","PERIOD":"95.593","MEAN_ANOMALY":"245.9323","CENTER_NAME":"EARTH","ARG_OF_PERICENTER":"114.1803","EPHEMERIS_TYPE":"0","MEAN_ELEMENT_THEORY":"SGP4","ECCENTRICITY":"0.00013120","RCS_SIZE":"LARGE","PERIAPSIS":"546.339","MEAN_MOTION_DOT":"-0.00001139","MEAN_MOTION_DDOT":"0.0000000000000","REF_FRAME":"TEME","BSTAR":"-0.00005757800000","OBJECT_ID":"2021-009BE","DECAY_DATE":null,"OBJECT_TYPE":"PAYLOAD","CLASSIFICATION_TYPE":"U","SEMIMAJOR_AXIS":"6925.383","EPOCH":"2022-10-30T19:52:49.194624","APOAPSIS":"548.156","NORAD_CAT_ID":"47600","REV_AT_EPOCH":"9631","OBJECT_NAME":"STARLINK-2005","SITE":"AFETR","ELEMENT_SET_NO":"999","MEAN_MOTION":"15.06388836","TIME_SYSTEM":"UTC","LAUNCH_DATE":"2021-02-04"},{"REF_FRAME":"TEME","ECCENTRICITY":"0.00014230","RCS_SIZE":"LARGE","PERIAPSIS":"546.233","MEAN_MOTION_DDOT":"0.0000000000000","MEAN_MOTION_DOT":"-0.00001203","EPHEMERIS_TYPE":"0","ARG_OF_PERICENTER":"101.9054","MEAN_ELEMENT_THEORY":"SGP4","PERIOD":"95.592","INCLINATION":"53.0533","MEAN_ANOMALY":"258.2094","CENTER_NAME":"EARTH","FILE":"3637924","TLE_LINE2":"2 47601  53.0533 105.7218 0001423 101.9054 258.2094 15.06398516 96271","COUNTRY_CODE":"US","GP_ID":"216528479","TLE_LINE1":"1 47601U 21009BF  22303.60719221 -.00001203  00000-0 -61884-4 0  9997","RA_OF_ASC_NODE":"105.7218","SITE":"AFETR","ELEMENT_SET_NO":"999","MEAN_MOTION":"15.06398516","TIME_SYSTEM":"UTC","LAUNCH_DATE":"2021-02-04","REV_AT_EPOCH":"9627","OBJECT_NAME":"STARLINK-2006","NORAD_CAT_ID":"47601","APOAPSIS":"548.204","SEMIMAJOR_AXIS":"6925.353","EPOCH":"2022-10-30T14:34:21.406944","OBJECT_TYPE":"PAYLOAD","CLASSIFICATION_TYPE":"U","OBJECT_ID":"2021-009BF","DECAY_DATE":null,"BSTAR":"-0.00006188400000"},{"REF_FRAME":"TEME","PERIAPSIS":"546.080","RCS_SIZE":"LARGE","MEAN_MOTION_DOT":"0.00000047","MEAN_MOTION_DDOT":"0.0000000000000","ECCENTRICITY":"0.00015950","MEAN_ELEMENT_THEORY":"SGP4","EPHEMERIS_TYPE":"0","ARG_OF_PERICENTER":"115.5571","CENTER_NAME":"EARTH","INCLINATION":"53.0541","PERIOD":"95.592","MEAN_ANOMALY":"244.5583","TLE_LINE2":"2 47602  53.0541 114.4423 0001595 115.5571 244.5583 15.06409378 96170","COUNTRY_CODE":"US","GP_ID":"216527239","FILE":"3637924","TLE_LINE1":"1 47602U 21009BG  22303.89377778  .00000047  00000-0  22069-4 0  9991","RA_OF_ASC_NODE":"114.4423","TIME_SYSTEM":"UTC","LAUNCH_DATE":"2021-02-04","MEAN_MOTION":"15.06409378","SITE":"AFETR","ELEMENT_SET_NO":"999","OBJECT_NAME":"STARLINK-2007","REV_AT_EPOCH":"9617","NORAD_CAT_ID":"47602","APOAPSIS":"548.289","EPOCH":"2022-10-30T21:27:02.400192","SEMIMAJOR_AXIS":"6925.320","OBJECT_TYPE":"PAYLOAD","CLASSIFICATION_TYPE":"U","DECAY_DATE":null,"OBJECT_ID":"2021-009BG","BSTAR":"0.00002206900000"},{"SITE":"AFETR","ELEMENT_SET_NO":"999","MEAN_MOTION":"15.06391437","LAUNCH_DATE":"2021-02-04","TIME_SYSTEM":"UTC","REV_AT_EPOCH":"9574","OBJECT_NAME":"STARLINK-2008","NORAD_CAT_ID":"47603","APOAPSIS":"548.334","SEMIMAJOR_AXIS":"6925.375","EPOCH":"2022-10-30T20:08:44.418336","CLASSIFICATION_TYPE":"U","OBJECT_TYPE":"PAYLOAD","OBJECT_ID":"2021-009BH","DECAY_DATE":null,"BSTAR":"-0.00000084618000","REF_FRAME":"TEME","ECCENTRICITY":"0.00015800","MEAN_MOTION_DDOT":"0.0000000000000","MEAN_MOTION_DOT":"-0.00000294","PERIAPSIS":"546.146","RCS_SIZE":"LARGE","EPHEMERIS_TYPE":"0","ARG_OF_PERICENTER":"88.8002","MEAN_ELEMENT_THEORY":"SGP4","MEAN_ANOMALY":"271.3168","PERIOD":"95.593","INCLINATION":"53.0543","CENTER_NAME":"EARTH","FILE":"3637924","GP_ID":"216527989","TLE_LINE2":"2 47603  53.0543 144.6824 0001580  88.8002 271.3168 15.06391437 95743","COUNTRY_CODE":"US","TLE_LINE1":"1 47603U 21009BH  22303.83940299 -.00000294  00000-0 -84618-6 0  9996","RA_OF_ASC_NODE":"144.6824"},{"EPOCH":"2022-10-30T13:39:56.091744","SEMIMAJOR_AXIS":"6925.340","OBJECT_TYPE":"PAYLOAD","CLASSIFICATION_TYPE":"U","DECAY_DATE":null,"OBJECT_ID":"2021-009BJ","BSTAR":"0.00009921300000","TIME_SYSTEM":"UTC","LAUNCH_DATE":"2021-02-04","ELEMENT_SET_NO":"999","SITE":"AFETR","MEAN_MOTION":"15.06402869","OBJECT_NAME":"STARLINK-2021","REV_AT_EPOCH":"9613","NORAD_CAT_ID":"47604","APOAPSIS":"548.039","COUNTRY_CODE":"US","TLE_LINE2":"2 47604  53.0552 115.8945 0001204 106.1893 253.9229 15.06402869 96133","GP_ID":"216528735","FILE":"3637924","TLE_LINE1":"1 47604U 21009BJ  22303.56939921  .00001197  00000-0  99213-4 0  9993","RA_OF_ASC_NODE":"115.8945","REF_FRAME":"TEME","RCS_SIZE":"LARGE","PERIAPSIS":"546.371","MEAN_MOTION_DDOT":"0.0000000000000","MEAN_MOTION_DOT":"0.00001197","ECCENTRICITY":"0.00012040","MEAN_ELEMENT_THEORY":"SGP4","ARG_OF_PERICENTER":"106.1893","EPHEMERIS_TYPE":"0","CENTER_NAME":"EARTH","PERIOD":"95.592","MEAN_ANOMALY":"253.9229","INCLINATION":"53.0552"},{"NORAD_CAT_ID":"47606","APOAPSIS":"548.175","LAUNCH_DATE":"2021-02-04","TIME_SYSTEM":"UTC","SITE":"AFETR","MEAN_MOTION":"15.06399282","ELEMENT_SET_NO":"999","OBJECT_NAME":"STARLINK-2024","REV_AT_EPOCH":"9613","DECAY_DATE":null,"OBJECT_ID":"2021-009BL","BSTAR":"0.00002462800000","EPOCH":"2022-10-30T13:45:14.842944","SEMIMAJOR_AXIS":"6925.351","CLASSIFICATION_TYPE":"U","OBJECT_TYPE":"PAYLOAD","MEAN_ELEMENT_THEORY":"SGP4","EPHEMERIS_TYPE":"0","ARG_OF_PERICENTER":"94.3751","CENTER_NAME":"EARTH","MEAN_ANOMALY":"265.7396","PERIOD":"95.592","INCLINATION":"53.0543","REF_FRAME":"TEME","MEAN_MOTION_DDOT":"0.0000000000000","MEAN_MOTION_DOT":"0.00000085","PERIAPSIS":"546.257","RCS_SIZE":"LARGE","ECCENTRICITY":"0.00013850","RA_OF_ASC_NODE":"115.8747","GP_ID":"216528979","TLE_LINE2":"2 47606  53.0543 115.8747 0001385  94.3751 265.7396 15.06399282 96136","COUNTRY_CODE":"US","FILE":"3637924","TLE_LINE1":"1 47606U 21009BL  22303.57308846  .00000085  00000-0  24628-4 0  9995"},{"OBJECT_ID":"2021-009BM","DECAY_DATE":null,"BSTAR":"0.00000181880000","SEMIMAJOR_AXIS":"6925.346","EPOCH":"2022-10-30T21:11:05.918496","CLASSIFICATION_TYPE":"U","OBJECT_TYPE":"PAYLOAD","NORAD_CAT_ID":"47607","APOAPSIS":"547.925","SITE":"AFETR","ELEMENT_SET_NO":"999","MEAN_MOTION":"15.06400930","LAUNCH_DATE":"2021-02-04","TIME_SYSTEM":"UTC","REV_AT_EPOCH":"9617","OBJECT_NAME":"STARLINK-2025","RA_OF_ASC_NODE":"114.4909","FILE":"3637924","GP_ID":"216527739","COUNTRY_CODE":"US","TLE_LINE2":"2 47607  53.0548 114.4909 0001032  96.3048 263.8059 15.06400930 96179","TLE_LINE1":"1 47607U 21009BM  22303.88270739 -.00000254  00000-0  18188-5 0  9993","EPHEMERIS_TYPE":"0","ARG_OF_PERICENTER":"96.3048","MEAN_ELEMENT_THEORY":"SGP4","MEAN_ANOMALY":"263.8059","PERIOD":"95.592","INCLINATION":"53.0548","CENTER_NAME":"EARTH","REF_FRAME":"TEME","ECCENTRICITY":"0.00010320","MEAN_MOTION_DDOT":"0.0000000000000","MEAN_MOTION_DOT":"-0.00000254","RCS_SIZE":"LARGE","PERIAPSIS":"546.496"},{"OBJECT_NAME":"STARLINK-1528","REV_AT_EPOCH":"9522","LAUNCH_DATE":"2021-02-16","TIME_SYSTEM":"UTC","ELEMENT_SET_NO":"999","SITE":"AFETR","MEAN_MOTION":"15.06384564","APOAPSIS":"548.242","NORAD_CAT_ID":"47620","CLASSIFICATION_TYPE":"U","OBJECT_TYPE":"PAYLOAD","EPOCH":"2022-10-30T21:34:59.146752","SEMIMAJOR_AXIS":"6925.396","BSTAR":"-0.00016537000000","DECAY_DATE":null,"OBJECT_ID":"2021-012A","MEAN_MOTION_DDOT":"0.0000000000000","MEAN_MOTION_DOT":"-0.00002743","RCS_SIZE":"LARGE","PERIAPSIS":"546.280","ECCENTRICITY":"0.00014170","REF_FRAME":"TEME","CENTER_NAME":"EARTH","INCLINATION":"53.0537","PERIOD":"95.593","MEAN_ANOMALY":"267.3113","MEAN_ELEMENT_THEORY":"SGP4","ARG_OF_PERICENTER":"92.8038","EPHEMERIS_TYPE":"0","TLE_LINE1":"1 47620U 21012A   22303.89929568 -.00002743  00000-0 -16537-3 0  9994","GP_ID":"216528736","COUNTRY_CODE":"US","TLE_LINE2":"2 47620  53.0537 174.4060 0001417  92.8038 267.3113 15.06384564 95222","FILE":"3637924","RA_OF_ASC_NODE":"174.4060"},{"OBJECT_TYPE":"PAYLOAD","CLASSIFICATION_TYPE":"U","EPOCH":"2022-10-30T21:24:22.429728","SEMIMAJOR_AXIS":"6925.404","BSTAR":"-0.00023897000000","DECAY_DATE":null,"OBJECT_ID":"2021-012B","OBJECT_NAME":"STARLINK-1609","REV_AT_EPOCH":"9523","TIME_SYSTEM":"UTC","LAUNCH_DATE":"2021-02-16","SITE":"AFETR","ELEMENT_SET_NO":"999","MEAN_MOTION":"15.06381846","APOAPSIS":"548.284","NORAD_CAT_ID":"47621","TLE_LINE1":"1 47621U 21012B   22303.89192627 -.00003837  00000-0 -23897-3 0  9995","COUNTRY_CODE":"US","TLE_LINE2":"2 47621  53.0534 174.4311 0001465  78.0281 282.0872 15.06381846 95235","GP_ID":"216528980","FILE":"3637924","RA_OF_ASC_NODE":"174.4311","RCS_SIZE":"LARGE","PERIAPSIS":"546.255","MEAN_MOTION_DOT":"-0.00003837","MEAN_MOTION_DDOT":"0.0000000000000","ECCENTRICITY":"0.00014650","REF_FRAME":"TEME","CENTER_NAME":"EARTH","PERIOD":"95.593","INCLINATION":"53.0534","MEAN_ANOMALY":"282.0872","MEAN_ELEMENT_THEORY":"SGP4","ARG_OF_PERICENTER":"78.0281","EPHEMERIS_TYPE":"0"}];
